{
    "links": {
        "self": "http://www.neowsapp.com/rest/v1/neo/3638571?api_key=iIulBulltgU6a56xZRHN4H3l9WmuAYTsLGpBGhQ2"
    },
    "id": "3638571",
    "neo_reference_id": "3638571",
    "name": "(2013 JZ35)",
    "designation": "2013 JZ35",
    "nasa_jpl_url": "http://ssd.jpl.nasa.gov/sbdb.cgi?sstr=3638571",
    "absolute_magnitude_h": 19.9,
    "estimated_diameter": {
        "kilometers": {
            "estimated_diameter_min": 0.2783267681,
            "estimated_diameter_max": 0.6223575734
        },
        "meters": {
            "estimated_diameter_min": 278.3267680719,
            "estimated_diameter_max": 622.3575733667
        },
        "miles": {
            "estimated_diameter_min": 0.1729441822,
            "estimated_diameter_max": 0.3867149477
        },
        "feet": {
            "estimated_diameter_min": 913.1455937611,
            "estimated_diameter_max": 2041.8556210042
        }
    },
    "is_potentially_hazardous_asteroid": false,
    "close_approach_data": [
        {
            "close_approach_date": "2013-04-19",
            "close_approach_date_full": "2013-Apr-19 10:32",
            "epoch_date_close_approach": 1366367520000,
            "relative_velocity": {
                "kilometers_per_second": "26.2199961387",
                "kilometers_per_hour": "94391.9860992476",
                "miles_per_hour": "58651.5093626131"
            },
            "miss_distance": {
                "astronomical": "0.3811617582",
                "lunar": "148.2719239398",
                "kilometers": "57020987.152175034",
                "miles": "35431198.4498581092"
            },
            "orbiting_body": "Earth"
        }
    ],
    "orbital_data": {
        "orbit_id": "7",
        "orbit_determination_date": "2017-04-06 08:45:47",
        "first_observation_date": "2013-05-15",
        "last_observation_date": "2013-05-29",
        "data_arc_in_days": 14,
        "observations_used": 38,
        "orbit_uncertainty": "8",
        "minimum_orbit_intersection": ".282614",
        "jupiter_tisserand_invariant": "3.144",
        "epoch_osculation": "2456430.5",
        "eccentricity": ".7713786918588936",
        "semi_major_axis": "1.999510863074289",
        "inclination": "46.64027582849207",
        "ascending_node_longitude": "228.7476391907202",
        "orbital_period": "1032.723545457971",
        "perihelion_distance": ".4571307891583965",
        "perihelion_argument": "229.4226990480959",
        "aphelion_distance": "3.541890936990181",
        "perihelion_time": "2456336.586000962732",
        "mean_anomaly": "32.7377445804468",
        "mean_motion": ".3485928074200678",
        "equinox": "J2000",
        "orbit_class": {
            "orbit_class_type": "APO",
            "orbit_class_description": "Near-Earth asteroid orbits which cross the Earth’s orbit similar to that of 1862 Apollo",
            "orbit_class_range": "a (semi-major axis) > 1.0 AU; q (perihelion) < 1.017 AU"
        }
    },
    "is_sentry_object": false
}